start=new Date('2022-12-28T00:00:00.000Z').valueOf();
sats=[{"TLE_LINE1":"1 52465U 22049Q   22361.85344964  .00004416  00000-0  29530-3 0  9993","GP_ID":"221628496","OBJECT_TYPE":"PAYLOAD","TIME_SYSTEM":"UTC","COUNTRY_CODE":"US","PERIAPSIS":"537.562","MEAN_MOTION":"15.08849981","REV_AT_EPOCH":"3624","CENTER_NAME":"EARTH","REF_FRAME":"TEME","MEAN_ANOMALY":"333.2923","EPHEMERIS_TYPE":"0","PERIOD":"95.437","RCS_SIZE":"LARGE","ECCENTRICITY":"0.00031120","APOAPSIS":"541.868","OBJECT_NAME":"STARLINK-3863","SEMIMAJOR_AXIS":"6917.850","MEAN_MOTION_DDOT":"0.0000000000000","MEAN_MOTION_DOT":"0.00004416","OBJECT_ID":"2022-049Q","RA_OF_ASC_NODE":"251.7426","EPOCH":"2022-12-27T20:28:58.048896","TLE_LINE2":"2 52465  53.2173 251.7426 0003112  26.8229 333.2923 15.08849981 36241","SITE":"AFETR","ELEMENT_SET_NO":"999","LAUNCH_DATE":"2022-05-06","INCLINATION":"53.2173","BSTAR":"0.00029530000000","NORAD_CAT_ID":"52465","FILE":"3724247","MEAN_ELEMENT_THEORY":"SGP4","DECAY_DATE":null,"CLASSIFICATION_TYPE":"U","ARG_OF_PERICENTER":"26.8229"},{"NORAD_CAT_ID":"52466","FILE":"3723863","DECAY_DATE":null,"MEAN_ELEMENT_THEORY":"SGP4","ARG_OF_PERICENTER":"29.2952","CLASSIFICATION_TYPE":"U","LAUNCH_DATE":"2022-05-06","BSTAR":"0.00031639000000","INCLINATION":"53.2174","OBJECT_ID":"2022-049R","RA_OF_ASC_NODE":"264.7367","ELEMENT_SET_NO":"999","SITE":"AFETR","TLE_LINE2":"2 52466  53.2174 264.7367 0003361  29.2952 330.8228 15.08849543 35847","EPOCH":"2022-12-27T04:28:29.612640","SEMIMAJOR_AXIS":"6917.851","OBJECT_NAME":"STARLINK-3840","MEAN_MOTION_DOT":"0.00004752","MEAN_MOTION_DDOT":"0.0000000000000","APOAPSIS":"542.041","PERIOD":"95.437","RCS_SIZE":"LARGE","ECCENTRICITY":"0.00033610","REV_AT_EPOCH":"3584","MEAN_MOTION":"15.08849543","CENTER_NAME":"EARTH","REF_FRAME":"TEME","EPHEMERIS_TYPE":"0","MEAN_ANOMALY":"330.8228","TLE_LINE1":"1 52466U 22049R   22361.18645385  .00004752  00000-0  31639-3 0  9997","OBJECT_TYPE":"PAYLOAD","GP_ID":"221565184","TIME_SYSTEM":"UTC","PERIAPSIS":"537.391","COUNTRY_CODE":"US"},{"LAUNCH_DATE":"2022-05-06","INCLINATION":"53.2174","BSTAR":"0.00011200000000","DECAY_DATE":null,"FILE":"3723863","MEAN_ELEMENT_THEORY":"SGP4","ARG_OF_PERICENTER":"71.5386","CLASSIFICATION_TYPE":"U","NORAD_CAT_ID":"52467","MEAN_MOTION_DOT":"0.00001495","MEAN_MOTION_DDOT":"0.0000000000000","SEMIMAJOR_AXIS":"6917.844","OBJECT_NAME":"STARLINK-3873","ELEMENT_SET_NO":"999","TLE_LINE2":"2 52467  53.2174 263.5337 0001516  71.5386 288.5770 15.08851969 35883","EPOCH":"2022-12-27T10:55:18.787584","SITE":"AFETR","OBJECT_ID":"2022-049S","RA_OF_ASC_NODE":"263.5337","ECCENTRICITY":"0.00015160","PERIOD":"95.437","RCS_SIZE":"LARGE","APOAPSIS":"540.758","PERIAPSIS":"538.660","COUNTRY_CODE":"US","TLE_LINE1":"1 52467U 22049S   22361.45507856  .00001495  00000-0  11200-3 0  9991","GP_ID":"221566434","TIME_SYSTEM":"UTC","OBJECT_TYPE":"PAYLOAD","REF_FRAME":"TEME","EPHEMERIS_TYPE":"0","MEAN_ANOMALY":"288.5770","MEAN_MOTION":"15.08851969","REV_AT_EPOCH":"3588","CENTER_NAME":"EARTH"},{"MEAN_MOTION_DDOT":"0.0000000000000","MEAN_MOTION_DOT":"0.00004996","OBJECT_NAME":"STARLINK-3864","SEMIMAJOR_AXIS":"6917.843","SITE":"AFETR","TLE_LINE2":"2 52468  53.2172 262.1151 0002596  35.7106 324.4059 15.08852100 36094","EPOCH":"2022-12-27T18:31:03.672192","ELEMENT_SET_NO":"999","RA_OF_ASC_NODE":"262.1151","OBJECT_ID":"2022-049T","BSTAR":"0.00033169000000","INCLINATION":"53.2172","LAUNCH_DATE":"2022-05-06","CLASSIFICATION_TYPE":"U","ARG_OF_PERICENTER":"35.7106","MEAN_ELEMENT_THEORY":"SGP4","FILE":"3724243","DECAY_DATE":null,"NORAD_CAT_ID":"52468","PERIAPSIS":"537.913","COUNTRY_CODE":"US","TIME_SYSTEM":"UTC","GP_ID":"221628013","OBJECT_TYPE":"PAYLOAD","TLE_LINE1":"1 52468U 22049T   22361.77157028  .00004996  00000-0  33169-3 0  9996","MEAN_ANOMALY":"324.4059","EPHEMERIS_TYPE":"0","REF_FRAME":"TEME","CENTER_NAME":"EARTH","REV_AT_EPOCH":"3609","MEAN_MOTION":"15.08852100","ECCENTRICITY":"0.00025960","RCS_SIZE":"LARGE","PERIOD":"95.437","APOAPSIS":"541.504"},{"COUNTRY_CODE":"US","PERIAPSIS":"538.355","TLE_LINE1":"1 52469U 22049U   22361.44771784  .00002099  00000-0  14989-3 0  9993","OBJECT_TYPE":"PAYLOAD","GP_ID":"221564934","TIME_SYSTEM":"UTC","REF_FRAME":"TEME","MEAN_ANOMALY":"316.4546","EPHEMERIS_TYPE":"0","REV_AT_EPOCH":"3588","MEAN_MOTION":"15.08855910","CENTER_NAME":"EARTH","ECCENTRICITY":"0.00019400","PERIOD":"95.437","RCS_SIZE":"LARGE","APOAPSIS":"541.039","MEAN_MOTION_DDOT":"0.0000000000000","MEAN_MOTION_DOT":"0.00002099","SEMIMAJOR_AXIS":"6917.832","OBJECT_NAME":"STARLINK-3828","TLE_LINE2":"2 52469  53.2180 263.5658 0001940  43.6599 316.4546 15.08855910 35887","EPOCH":"2022-12-27T10:44:42.821376","SITE":"AFETR","ELEMENT_SET_NO":"999","OBJECT_ID":"2022-049U","RA_OF_ASC_NODE":"263.5658","LAUNCH_DATE":"2022-05-06","BSTAR":"0.00014989000000","INCLINATION":"53.2180","FILE":"3723863","MEAN_ELEMENT_THEORY":"SGP4","DECAY_DATE":null,"CLASSIFICATION_TYPE":"U","ARG_OF_PERICENTER":"43.6599","NORAD_CAT_ID":"52469"},{"NORAD_CAT_ID":"52470","ARG_OF_PERICENTER":"43.3793","CLASSIFICATION_TYPE":"U","FILE":"3724149","DECAY_DATE":null,"MEAN_ELEMENT_THEORY":"SGP4","BSTAR":"0.00019245000000","INCLINATION":"53.2172","LAUNCH_DATE":"2022-05-06","RA_OF_ASC_NODE":"262.1507","OBJECT_ID":"2022-049V","ELEMENT_SET_NO":"999","EPOCH":"2022-12-27T18:20:27.003552","TLE_LINE2":"2 52470  53.2172 262.1507 0002350  43.3793 316.7384 15.08850469 35930","SITE":"AFETR","OBJECT_NAME":"STARLINK-3859","SEMIMAJOR_AXIS":"6917.848","MEAN_MOTION_DOT":"0.00002777","MEAN_MOTION_DDOT":"0.0000000000000","APOAPSIS":"541.339","RCS_SIZE":"LARGE","PERIOD":"95.437","ECCENTRICITY":"0.00023500","CENTER_NAME":"EARTH","REV_AT_EPOCH":"3593","MEAN_MOTION":"15.08850469","EPHEMERIS_TYPE":"0","MEAN_ANOMALY":"316.7384","REF_FRAME":"TEME","OBJECT_TYPE":"PAYLOAD","GP_ID":"221623940","TIME_SYSTEM":"UTC","TLE_LINE1":"1 52470U 22049V   22361.76420143  .00002777  00000-0  19245-3 0  9993","COUNTRY_CODE":"US","PERIAPSIS":"538.088"},{"RA_OF_ASC_NODE":"262.0924","OBJECT_ID":"2022-049W","EPOCH":"2022-12-27T18:36:21.538656","TLE_LINE2":"2 52471  53.2155 262.0924 0002331  37.1046 323.0107 15.08870053 35930","SITE":"AFETR","ELEMENT_SET_NO":"999","SEMIMAJOR_AXIS":"6917.789","OBJECT_NAME":"STARLINK-3862","MEAN_MOTION_DDOT":"0.0000000000000","MEAN_MOTION_DOT":"0.00014587","NORAD_CAT_ID":"52471","CLASSIFICATION_TYPE":"U","ARG_OF_PERICENTER":"37.1046","FILE":"3724149","DECAY_DATE":null,"MEAN_ELEMENT_THEORY":"SGP4","INCLINATION":"53.2155","BSTAR":"0.00093193000000","LAUNCH_DATE":"2022-05-06","CENTER_NAME":"EARTH","REV_AT_EPOCH":"3593","MEAN_MOTION":"15.08870053","MEAN_ANOMALY":"323.0107","EPHEMERIS_TYPE":"0","REF_FRAME":"TEME","OBJECT_TYPE":"PAYLOAD","GP_ID":"221623689","TIME_SYSTEM":"UTC","TLE_LINE1":"1 52471U 22049W   22361.77524929  .00014587  00000-0  93193-3 0  9998","COUNTRY_CODE":"US","PERIAPSIS":"538.041","APOAPSIS":"541.266","RCS_SIZE":"LARGE","PERIOD":"95.436","ECCENTRICITY":"0.00023310"},{"APOAPSIS":"540.921","ECCENTRICITY":"0.00016950","PERIOD":"95.438","RCS_SIZE":"LARGE","REF_FRAME":"TEME","EPHEMERIS_TYPE":"0","MEAN_ANOMALY":"336.7253","REV_AT_EPOCH":"3610","MEAN_MOTION":"15.08839042","CENTER_NAME":"EARTH","PERIAPSIS":"538.576","COUNTRY_CODE":"US","TLE_LINE1":"1 52472U 22049X   22361.82676624  .00002679  00000-0  18635-3 0  9992","OBJECT_TYPE":"PAYLOAD","GP_ID":"221628287","TIME_SYSTEM":"UTC","FILE":"3724243","MEAN_ELEMENT_THEORY":"SGP4","DECAY_DATE":null,"ARG_OF_PERICENTER":"23.3816","CLASSIFICATION_TYPE":"U","NORAD_CAT_ID":"52472","LAUNCH_DATE":"2022-05-06","INCLINATION":"53.2184","BSTAR":"0.00018635000000","ELEMENT_SET_NO":"999","TLE_LINE2":"2 52472  53.2184 261.8725 0001695  23.3816 336.7253 15.08839042 36109","SITE":"AFETR","EPOCH":"2022-12-27T19:50:32.603136","OBJECT_ID":"2022-049X","RA_OF_ASC_NODE":"261.8725","MEAN_MOTION_DOT":"0.00002679","MEAN_MOTION_DDOT":"0.0000000000000","OBJECT_NAME":"STARLINK-3881","SEMIMAJOR_AXIS":"6917.883"},{"TLE_LINE2":"2 52473  53.2168 262.1380 0002557  31.7597 328.3549 15.08860739 36090","SITE":"AFETR","EPOCH":"2022-12-27T18:25:45.193152","ELEMENT_SET_NO":"999","OBJECT_ID":"2022-049Y","RA_OF_ASC_NODE":"262.1380","MEAN_MOTION_DDOT":"0.0000000000000","MEAN_MOTION_DOT":"0.00008125","OBJECT_NAME":"STARLINK-3879","SEMIMAJOR_AXIS":"6917.817","FILE":"3724248","DECAY_DATE":null,"MEAN_ELEMENT_THEORY":"SGP4","CLASSIFICATION_TYPE":"U","ARG_OF_PERICENTER":"31.7597","NORAD_CAT_ID":"52473","LAUNCH_DATE":"2022-05-06","INCLINATION":"53.2168","BSTAR":"0.00052770000000","REF_FRAME":"TEME","MEAN_ANOMALY":"328.3549","EPHEMERIS_TYPE":"0","REV_AT_EPOCH":"3609","MEAN_MOTION":"15.08860739","CENTER_NAME":"EARTH","PERIAPSIS":"537.913","COUNTRY_CODE":"US","TLE_LINE1":"1 52473U 22049Y   22361.76788418  .00008125  00000-0  52770-3 0  9991","OBJECT_TYPE":"PAYLOAD","GP_ID":"221628513","TIME_SYSTEM":"UTC","APOAPSIS":"541.451","ECCENTRICITY":"0.00025570","PERIOD":"95.436","RCS_SIZE":"LARGE"},{"LAUNCH_DATE":"2022-05-06","INCLINATION":"53.2189","BSTAR":"0.00014305000000","FILE":"3724149","MEAN_ELEMENT_THEORY":"SGP4","DECAY_DATE":null,"CLASSIFICATION_TYPE":"U","ARG_OF_PERICENTER":"34.4410","NORAD_CAT_ID":"52474","MEAN_MOTION_DDOT":"0.0000000000000","MEAN_MOTION_DOT":"0.00001989","OBJECT_NAME":"STARLINK-3855","SEMIMAJOR_AXIS":"6917.869","EPOCH":"2022-12-27T17:07:35.771808","TLE_LINE2":"2 52474  53.2189 252.3657 0002635  34.4410 325.6752 15.08843799 36063","SITE":"AFETR","ELEMENT_SET_NO":"999","OBJECT_ID":"2022-049Z","RA_OF_ASC_NODE":"252.3657","ECCENTRICITY":"0.00026350","PERIOD":"95.437","RCS_SIZE":"LARGE","APOAPSIS":"541.557","COUNTRY_CODE":"US","PERIAPSIS":"537.911","TLE_LINE1":"1 52474U 22049Z   22361.71360847  .00001989  00000-0  14305-3 0  9992","OBJECT_TYPE":"PAYLOAD","GP_ID":"221623440","TIME_SYSTEM":"UTC","REF_FRAME":"TEME","MEAN_ANOMALY":"325.6752","EPHEMERIS_TYPE":"0","REV_AT_EPOCH":"3606","MEAN_MOTION":"15.08843799","CENTER_NAME":"EARTH"}];
